Skip Page Navigation
NASA Logo - Jet Propulsion Laboratory				+ View the NASA Portal
+ Center for Near-Earth Object Studies			
JPL Home	Earth	Solar System	Stars & Galaxies	Technology

JPL Solar System Dynamics
BODIES		ORBITS		EPHEMERIDES		TOOLS		PHYSICAL DATA		DISCOVERY		FAQ		SITE MAP

IMPORTANT: The SSD Announcement email list is now available. Major changes are coming in the near future, including possible hostname and/or URL changes. To be notified of such changes, subscribe to this email list.

Please visit this page for more details.


Don't show this message again
HORIZONS Web-Interface
This tool provides a web-based limited interface to JPL's HORIZONS system which can be used to generate ephemerides for solar-system bodies. Full access to HORIZONS features is available via the primary telnet interface. HORIZONS system news shows recent changes and improvements. A web-interface tutorial is available to assist new users.
Current Settings
Ephemeris Type [change] : 	ELEMENTS
Target Body [change] : 	Uranus Barycenter [7]
Center [change] : 	Solar System Barycenter (SSB) [500@0]
Time Span [change] : 	Start=JD 2458850.0, Stop=JD 2464329.0, Intervals=500
Table Settings [change] : 	CSV format=YES
Display/Output [change] : 	default (formatted HTML)
Object Data Page
 Revised: Jul 31, 2013           Uranus Barycenter                            7
 
 Dynamical point:
 ---------------
 The location of the center-of-mass of the Uranus system. The point about 
 which Uranus and its satellites revolve. See 799 for Uranus center.
Results
*******************************************************************************
Ephemeris / WWW_USER Fri May 15 19:42:52 2020 Pasadena, USA      / Horizons    
*******************************************************************************
Target body name: Uranus Barycenter (7)           {source: DE431mx}
Center body name: Solar System Barycenter (0)     {source: DE431mx}
Center-site name: BODY CENTER
*******************************************************************************
Start time      : A.D. 2020-Jan-01 12:00:00.0000 TDB
Stop  time      : A.D. 2035-Jan-01 12:00:00.0000 TDB
Step-size       : 500 steps
*******************************************************************************
Center geodetic : 0.00000000,0.00000000,0.0000000 {E-lon(deg),Lat(deg),Alt(km)}
Center cylindric: 0.00000000,0.00000000,0.0000000 {E-lon(deg),Dxy(km),Dz(km)}
Center radii    : (undefined)                                                  
Keplerian GM    : 2.9627051586948196E-04 au^3/d^2
Output units    : AU-D, deg, Julian Day Number (Tp)                            
Output type     : GEOMETRIC osculating elements
Output format   : 10
Reference frame : ICRF/J2000.0                                                 
Coordinate systm: Ecliptic and Mean Equinox of Reference Epoch                 
*******************************************************************************
            JDTDB,            Calendar Date (TDB),                     EC,                     QR,                     IN,                     OM,                      W,                     Tp,                      N,                     MA,                     TA,                      A,                     AD,                     PR,
**************************************************************************************************************************************************************************************************************************************************************************************************************************************************
$$SOE
2460822.440000000, A.D. 2025-May-26 22:33:36.0000,  4.726662086017029E-02,  1.828119673964061E+01,  7.720932619523452E-01,  7.400429671500989E+01,  9.710047401532280E+01,  2.470115311234476E+06,  1.173321387364052E-02,  2.509647543056956E+02,  2.459478489076169E+02,  1.918815603600001E+01,  2.009511533235941E+01,  3.068213056345670E+04,
2460833.398000000, A.D. 2025-Jun-06 21:33:07.2000,  4.726617898552324E-02,  1.828121427964586E+01,  7.720929078031900E-01,  7.400430469484337E+01,  9.710000491809777E+01,  2.470115281475788E+06,  1.173320515013473E-02,  2.510937569989339E+02,  2.460724040018388E+02,  1.918816554678400E+01,  2.009511681392215E+01,  3.068215337527497E+04,
2460844.356000000, A.D. 2025-Jun-17 20:32:38.4000,  4.726572725020873E-02,  1.828123194268146E+01,  7.720925571587887E-01,  7.400431253419215E+01,  9.709954395225850E+01,  2.470115252465717E+06,  1.173319649035891E-02,  2.512227501259688E+02,  2.461969748206505E+02,  1.918817498809819E+01,  2.009511803351491E+01,  3.068217602047402E+04,
2460855.314000000, A.D. 2025-Jun-28 19:32:09.6000,  4.726526594260384E-02,  1.828124971067796E+01,  7.720922098516867E-01,  7.400432023806769E+01,  9.709909181538643E+01,  2.470115224254084E+06,  1.173318790638171E-02,  2.513517329926065E+02,  2.463215606906308E+02,  1.918818434678443E+01,  2.009511898289091E+01,  3.068219846749366E+04,
2460866.272000000, A.D. 2025-Jul-09 18:31:40.8000,  4.726479535868076E-02,  1.828126756573101E+01,  7.720918657089009E-01,  7.400432781151220E+01,  9.709864918046567E+01,  2.470115196888697E+06,  1.173317940997245E-02,  2.514807049315583E+02,  2.464461609627884E+02,  1.918819361001092E+01,  2.009511965429083E+01,  3.068222068555629E+04,
2460877.230000000, A.D. 2025-Jul-20 17:31:12.0000,  4.726431580061700E-02,  1.828128549009794E+01,  7.720915245568838E-01,  7.400433525948810E+01,  9.709821669888230E+01,  2.470115170415600E+06,  1.173317101263008E-02,  2.516096652992794E+02,  2.465707750096739E+02,  1.918820276524054E+01,  2.009512004038314E+01,  3.068224264459121E+04,
2460888.188000000, A.D. 2025-Jul-31 16:30:43.2000,  4.726382757469625E-02,  1.828130346626143E+01,  7.720911862107019E-01,  7.400434258710990E+01,  9.709779499953771E+01,  2.470115144879048E+06,  1.173316272556061E-02,  2.517386134764016E+02,  2.466954022260358E+02,  1.918821180025546E+01,  2.009512013424948E+01,  3.068226431529348E+04,
2460899.146000000, A.D. 2025-Aug-11 15:30:14.4000,  4.726333099143997E-02,  1.828132147689217E+01,  7.720908504813889E-01,  7.400434979947957E+01,  9.709738469157500E+01,  2.470115120321708E+06,  1.173315455971076E-02,  2.518675488650755E+02,  2.468200420262589E+02,  1.918822070312056E+01,  2.009511992934895E+01,  3.068228566903619E+04,
2460910.104000000, A.D. 2025-Aug-22 14:29:45.6000,  4.726282636482071E-02,  1.828133950485785E+01,  7.720905171752226E-01,  7.400435690170013E+01,  9.709698636524122E+01,  2.470115096784740E+06,  1.173314652577368E-02,  2.519964708879623E+02,  2.469446938434895E+02,  1.918822946217707E+01,  2.009511941949628E+01,  3.068230667785525E+04,
2460921.062000000, A.D. 2025-Sep-02 13:29:16.8000,  4.726231401322048E-02,  1.828135753317573E+01,  7.720901860791028E-01,  7.400436389917974E+01,  9.709660059338221E+01,  2.470115074307921E+06,  1.173313863421706E-02,  2.521253789864593E+02,  2.470693571278369E+02,  1.918823806601202E+01,  2.009511859884831E+01,  3.068232731437614E+04,
2460932.020000000, A.D. 2025-Sep-13 12:28:48.0000,  4.726179426135339E-02,  1.828137554496629E+01,  7.720898569654567E-01,  7.400437079751769E+01,  9.709622793160499E+01,  2.470115052929633E+06,  1.173313089529208E-02,  2.522542726208428E+02,  2.471940313463256E+02,  1.918824650344841E+01,  2.009511746193052E+01,  3.068234755179028E+04,
2460942.978000000, A.D. 2025-Sep-24 11:28:19.2000,  4.726126744100391E-02,  1.828139352350260E+01,  7.720895295875806E-01,  7.400437760258961E+01,  9.709586891357027E+01,  2.470115032686485E+06,  1.173312331897245E-02,  2.523831512751138E+02,  2.473187159875181E+02,  1.918825476361177E+01,  2.009511600372094E+01,  3.068236736401468E+04,
2460953.936000000, A.D. 2025-Oct-05 10:27:50.4000,  4.726073388768862E-02,  1.828141145235979E+01,  7.720892036959780E-01,  7.400438432019988E+01,  9.709552404675547E+01,  2.470115013613015E+06,  1.173311591487198E-02,  2.525120144613554E+02,  2.474434105661008E+02,  1.918826283601995E+01,  2.009511421968011E+01,  3.068238672590733E+04,
2460964.894000000, A.D. 2025-Oct-16 09:27:21.6000,  4.726019393838042E-02,  1.828142931546718E+01,  7.720888790341586E-01,  7.400439095616322E+01,  9.709519381278962E+01,  2.470114995741750E+06,  1.173310869223655E-02,  2.526408617190312E+02,  2.475681146224679E+02,  1.918827071059189E+01,  2.009511210571660E+01,  3.068240561328827E+04,
2460975.852000000, A.D. 2025-Oct-27 08:26:52.8000,  4.725964792929781E-02,  1.828144709716955E+01,  7.720885553380370E-01,  7.400439751631427E+01,  9.709487866706671E+01,  2.470114979103205E+06,  1.173310165992595E-02,  2.527696926151086E+02,  2.476928277231004E+02,  1.918827837766748E+01,  2.009510965816540E+01,  3.068242400298712E+04,
2460986.810000000, A.D. 2025-Nov-07 07:26:24.0000,  4.725909619445940E-02,  1.828146478222549E+01,  7.720882323463832E-01,  7.400440400629249E+01,  9.709457904166467E+01,  2.470114963726121E+06,  1.173309482644221E-02,  2.528985067410817E+02,  2.478175494578626E+02,  1.918828582797663E+01,  2.009510687372776E+01,  3.068244187276902E+04,
2460997.768000000, A.D. 2025-Nov-18 06:25:55.2000,  4.725853906443968E-02,  1.828148235580133E+01,  7.720879097998348E-01,  7.400441043156216E+01,  9.709429534795763E+01,  2.470114949637678E+06,  1.173308819995835E-02,  2.530273037100925E+02,  2.479422794373718E+02,  1.918829305260792E+01,  2.009510374941451E+01,  3.068245920125937E+04,
2461008.726000000, A.D. 2025-Nov-29 05:25:26.4000,  4.725797686648998E-02,  1.828149980340632E+01,  7.720875874370892E-01,  7.400441679749220E+01,  9.709402798092965E+01,  2.470114936863837E+06,  1.173308178837862E-02,  2.531560831523830E+02,  2.480670172886048E+02,  1.918830004294299E+01,  2.009510028247966E+01,  3.068247596778645E+04,
